[{"OBJECT_NAME":"STARLINK-31420","OBJECT_ID":"2024-046Y","EPOCH":"2026-03-09T11:26:24.936000","MEAN_MOTION":15.30182009,"ECCENTRICITY":0.00013933,"INCLINATION":53.1591,"RA_OF_ASC_NODE":156.5581,"ARG_OF_PERICENTER":29.2244,"MEAN_ANOMALY":330.8835,"EPHEMERIS_TYPE":0,"CLASSIFICATION_TYPE":"U","NORAD_CAT_ID":59223,"ELEMENT_SET_NO":999,"REV_AT_EPOCH":11300,"BSTAR":2.0839412e-5,"MEAN_MOTION_DOT":2.58e-6,"MEAN_MOTION_DDOT":0},{"OBJECT_NAME":"COSMOS 1782","OBJECT_ID":"1986-074A","EPOCH":"2026-03-09T22:40:22.374624","MEAN_MOTION":15.33314157,"ECCENTRICITY":0.00054418,"INCLINATION":82.5242,"RA_OF_ASC_NODE":238.1482,"ARG_OF_PERICENTER":197.7479,"MEAN_ANOMALY":162.3574,"EPHEMERIS_TYPE":0,"CLASSIFICATION_TYPE":"U","NORAD_CAT_ID":16986,"ELEMENT_SET_NO":999,"REV_AT_EPOCH":13134,"BSTAR":0.00042191031,"MEAN_MOTION_DOT":0.00013623,"MEAN_MOTION_DDOT":0}]
